[{"OBJECT_NAME":"STARLINK-30987","OBJECT_ID":"2023-186Q","EPOCH":"2026-03-09T00:44:57.627456","MEAN_MOTION":15.2757594,"ECCENTRICITY":0.00018442,"INCLINATION":43.0024,"RA_OF_ASC_NODE":67.517,"ARG_OF_PERICENTER":288.8768,"MEAN_ANOMALY":71.1883,"EPHEMERIS_TYPE":0,"CLASSIFICATION_TYPE":"U","NORAD_CAT_ID":58487,"ELEMENT_SET_NO":999,"REV_AT_EPOCH":12578,"BSTAR":-3.655461e-6,"MEAN_MOTION_DOT":-3.63e-6,"MEAN_MOTION_DDOT":0},{"OBJECT_NAME":"CZ-4C R\/B","OBJECT_ID":"2015-069B","EPOCH":"2026-03-09T18:13:41.887776","MEAN_MOTION":15.30824061,"ECCENTRICITY":0.00587215,"INCLINATION":97.486,"RA_OF_ASC_NODE":137.7913,"ARG_OF_PERICENTER":156.3643,"MEAN_ANOMALY":204.0316,"EPHEMERIS_TYPE":0,"CLASSIFICATION_TYPE":"U","NORAD_CAT_ID":41039,"ELEMENT_SET_NO":999,"REV_AT_EPOCH":56689,"BSTAR":0.0003480254,"MEAN_MOTION_DOT":0.00010856,"MEAN_MOTION_DDOT":0}]
